{"type":"FeatureCollection","features":[{"type":"Feature","properties":{"Name":"Roman Empire","FromYear":1,"ToYear":5,"Area":3547327.536145702,"Type":"POLITY","Wikipedia":"Roman Empire","SeshatID":"it_roman_principate","MemberOf":"(Roman Empire)","Components":""},"geometry":{"type":"MultiPolygon","coordinates":[[[[8.991649722902043,37.09652684105533],[9.05947494506836,37.06150817871094],[9.338316737579476,37.16404064155854],[9.61715853009059,37.26657310440614],[9.993423461914062,37.1904182434082],[10.134459904788581,37.19858003991242],[10.220489528047956,37.05720110069975],[10.24153247016093,37.022619653970914],[10.228352546691895,36.80373764038086],[10.461837768554688,36.73930740356445],[11.006271362304688,36.9970588684082],[11.006199836730957,36.80373764038086],[10.462488174438477,36.417205810546875],[10.540250778198242,36.3527946472168],[10.463515281677246,35.902034759521484],[10.69615650177002,35.708900451660156],[10.828747340918325,35.72564294182004],[10.928420066833496,35.58015823364258],[11.010874870708761,35.58015823364258],[11.010874870708761,35.38706970214844],[11.005731582641602,35.38706970214844],[11.082771301269531,35.00096893310547],[10.85119342803955,34.93662643432617],[10.851213455200195,34.80794906616211],[10.536255632874626,34.56234220321773],[10.004497528076172,34.2933349609375],[10.081672668457031,34.22901916503906],[10.005777359008789,33.90746307373047],[10.23681354522705,33.71455001831055],[10.55707035172546,33.69849748895086],[10.697741508483887,33.52165222167969],[11.081541061401367,33.5859489440918],[11.157825469970703,33.20018768310547],[11.45844554903346,33.178934821921395],[11.715282122308928,33.05744728077637],[11.972118695584395,32.93595973963135],[12.228955268859863,32.81447219848633],[12.615686311385247,32.84947038497204],[12.534722328186035,32.75019073486328],[12.840824127197266,32.75019073486328],[12.841977332852615,32.87718688082303],[13.285236414942075,32.88067788601888],[13.453653335571289,32.81447219848633],[13.742011093878311,32.77228902918092],[13.759129524230957,32.75019073486328],[14.059471895511864,32.71707568614856],[14.444439888000488,32.493072509765625],[14.66105598380406,32.48090054305611],[14.749334335327148,32.428794860839844],[15.051920981181697,32.41111932297719],[15.266372869141103,32.288059909807195],[15.31911322125276,32.077881945283245],[15.371853573364417,31.8677039807593],[15.424593925476074,31.65752601623535],[15.572518359705347,31.587112985085657],[15.64897632598877,31.40045166015625],[16.178552627563477,31.20764923095703],[16.402819362039548,31.182152608221116],[16.62708609651562,31.156655985485198],[16.85135283099169,31.131159362749283],[17.82912286714462,30.896587243214366],[18.220124955413468,30.754170689318308],[18.406297562240425,30.563167230950658],[18.592470169067383,30.372163772583008],[18.88567769720978,30.354869747888443],[18.968589782714844,30.243623733520508],[19.655010223388672,30.372163772583008],[19.874400261333733,30.63996002811905],[19.92648683137897,30.720471358075685],[20.08343575523795,30.963070680399657],[20.144544688217408,31.147178906278437],[20.214296340942383,31.271915435791016],[20.007263275065803,31.59597786014336],[20.121299206879467,32.07959364400858],[20.154083622880115,32.11755685131775],[20.25197273395232,32.23090901891075],[20.41556481886521,32.420342932681365],[20.481992721557617,32.428794860839844],[20.581271687545357,32.52006235549427],[20.71593475341797,32.557350158691406],[20.69747175537502,32.57702708930727],[20.87124252319336,32.62162780761719],[21.11793053477126,32.783148504681634],[21.41167449951172,32.75019073486328],[21.876605897667208,32.92307166312898],[23.052567862118547,32.61811310356394],[23.077939987182617,32.36451721191406],[23.29851722717285,32.171695709228516],[23.680339813232422,32.171695709228516],[24.129365921020508,31.978878021240234],[24.38305671679128,31.97438720871335],[24.63674751256205,31.969896396186464],[24.890438308332822,31.965405583659578],[25.075414365098183,31.769689671422828],[25.102048873901367,31.593257904052734],[25.248035430908203,31.464719772338867],[26.84314094366764,31.44082495060242],[27.297456741333008,31.336183547973633],[27.514896392822266,31.143381118774414],[27.758441083530855,31.104944522534883],[28.001985774239447,31.06650792629535],[28.24553046494804,31.02807133005582],[28.48907515565663,30.98963473381629],[28.865032196044922,30.822044372558594],[29.3970890045166,30.822044372558594],[29.485143661499023,31.014846801757812],[29.633193969726562,30.950578689575195],[29.86956024169922,31.079113006591797],[29.813964653991412,31.181687567552604],[29.90446496786752,31.224219708974264],[30.33879280090332,31.271915435791016],[30.272729152107914,31.397291643134487],[30.36339424044679,31.439901223080426],[30.80877685546875,31.464719772338867],[30.965608596801758,31.528987884521484],[30.992634398431132,31.55668985439854],[31.193483336599414,31.57087307615507],[31.117990493774414,31.528987884521484],[31.265825271606445,31.464719772338867],[31.56121298320204,31.45782138392949],[31.85660069479764,31.45092299552011],[31.780553817749023,31.20764923095703],[31.93739891052246,31.271915435791016],[31.999635696411133,31.079113006591797],[32.303932189941406,31.079113006591797],[32.23719787597656,31.20764923095703],[32.53215408325195,31.079113006591797],[32.76515197753906,31.143381118774414],[32.8316764831543,31.014846801757812],[33.74934005737305,31.079113006591797],[34.22111892700195,31.271915435791016],[34.2972412109375,31.271915435791016],[34.43400573730469,31.079113006591797],[34.54050064086914,30.500701904296875],[33.837974548339844,30.243623733520508],[32.918514251708984,30.115081787109375],[32.60208906603197,29.922341416250656],[32.509293553109956,29.930936830001635],[32.38094480595532,29.571040888086053],[32.555522028232865,29.29178175208121],[32.68916320800781,28.958093643188477],[32.747919644568206,28.859002365653048],[33.09210599203206,28.368240023803168],[33.49522247787392,27.89666251220595],[33.585105895996094,27.608078002929688],[33.73430714588322,27.385940901781574],[33.913713178159995,27.022529461885373],[33.97344287440587,26.911534646877758],[34.05074691772461,26.57941436767578],[34.18911005913019,26.51076349322664],[34.279833647004764,26.297906456421927],[34.370557234879335,26.085049419617214],[34.461280822753906,25.8721923828125],[34.5763915086311,25.7910840783794],[34.6902193470416,25.56299612317715],[34.8040471854521,25.334908167974906],[34.91787502386259,25.106820212772657],[35.03170286227309,24.878732257570412],[35.145530700683594,24.650644302368164],[35.28898196140829,24.46688773295325],[35.397874613135684,24.264534121704024],[35.59540139433569,24.094326435951594],[35.77588951914626,23.946051336712827],[35.77588951914626,23.946051336712827],[35.561154488501806,23.96749512552028],[35.49989388622294,23.81876708803346],[35.10795974731445,23.879167556762695],[33.75636291503906,23.68630027770996],[33.6817741394043,23.68630027770996],[33.38899612426758,23.814878463745117],[33.60275771891429,24.015180579057272],[33.816519313561,24.21548269436943],[34.030280908207715,24.415784809681586],[34.244042502854434,24.61608692499374],[34.457804097501146,24.816389040305896],[34.67156569214786,25.016691155618055],[34.88532728679457,25.21699327093021],[34.77533009452687,25.421399433600996],[34.681806874723954,25.595192255821463],[34.665068623550454,25.62629670150465],[34.56943557037829,25.804010196007674],[34.42355698625401,26.075094220808243],[34.37096867035779,26.172818313869676],[34.33745790342294,26.235090878615136],[34.13894652013567,26.60398165907676],[33.81800377695876,27.200384832806577],[33.579875114849386,27.38162567753314],[33.34174645274001,27.562866522259704],[33.10361779063063,27.744107366986263],[32.865489128521254,27.925348211712826],[32.62736046641188,28.10658905643939],[32.389231804302504,28.287829901165953],[32.15110314219313,28.469070745892516],[31.91297448008375,28.650311590619076],[31.674845817974372,28.83155243534564],[31.436717155864997,29.012793280072202],[31.198588493755622,29.194034124798765],[32.349497917583705,29.6213443054628],[32.349497917583705,29.6213443054628],[29.80711566950359,31.17846877234235],[29.681834813714868,31.11959093150826],[29.556553957926145,31.06071309067417],[29.76981652109936,30.28147919315814],[29.531687858989986,30.4627200378847],[29.293559196880608,30.643960882611264],[29.055430534771233,30.825201727337827],[29.055430534771233,30.825201727337827],[29.055430534771233,30.825201727337827],[29.055430534771233,30.825201727337827],[29.055430534771233,30.825201727337827],[28.902315905794023,30.869656321938738],[28.69408792077033,30.93011227393113],[28.734401587555173,30.918407790004512],[28.314434636344924,31.040339056053437],[28.19000121005089,31.076466482659537],[28.146371818716023,31.08913363874664],[27.978263776023688,31.137941351876],[25.224079280942615,31.545820507946026],[25.17933190195876,31.539557196087884],[25.17933190195876,31.539557196087884],[25.17933190195876,31.539557196087884],[25.17933190195876,31.539557196087884],[25.17933190195876,31.539557196087884],[25.17933190195876,31.539557196087884],[25.17933190195876,31.539557196087884],[24.933262566021256,31.653326727337877],[24.68719323008375,31.767096258587873],[24.441123894146244,31.880865789837866],[24.19505455820874,31.994635321087863],[23.948985222271233,32.108404852337856],[23.50268139434147,32.24366261898184],[23.37927149452143,32.281063479980126],[23.348113827647246,32.29050618732768],[20.16541588633379,31.089789129681606],[20.15802223396175,31.07836060242029],[19.19106674194336,30.050809860229492],[18.28125762939453,30.050809860229492],[16.701202392578125,30.69350814819336],[15.489551544189453,30.950578689575195],[15.184454917907715,30.886310577392578],[15.187263488769531,31.079113006591797],[14.584433555603027,31.528987884521484],[14.586112022399902,31.65752601623535],[13.82862377166748,32.107421875],[13.454203249971412,32.8359365321722],[12.977232190169582,32.89375311781884],[12.993766474081108,32.89577826405956],[12.455889701843262,32.36451721191406],[11.767910957336426,32.30024337768555],[11.768352508544922,32.428794860839844],[11.539045333862305,32.428794860839844],[11.462910652160645,32.557350158691406],[11.309853553771973,32.493072509765625],[11.157184600830078,32.685909271240234],[10.521372917583761,33.66950104374405],[10.307643579773162,33.754984889265614],[10.329038473173933,33.74642772167619],[10.229938501206746,33.78606405228767],[10.190684441021233,33.801764227337884],[9.801037513267238,33.288530872984964],[9.62503719329834,33.13589859008789],[9.547471046447754,33.32876968383789],[9.623573303222656,33.45735549926758],[9.315913200378418,33.5859489440918],[9.082552909851074,34.03607940673828],[8.928751945495605,34.03607940673828],[8.927783012390137,34.164703369140625],[8.773378372192383,34.22901916503906],[8.0807523727417,34.22901916503906],[8.001612663269043,34.42197799682617],[7.614861011505127,34.55062484741211],[6.817271355083733,36.950323797650384],[6.817271355083733,36.950323797650384],[5.830456237552477,36.79519728875688],[5.575796443831402,36.723884087618],[5.216563347271261,36.672491766400356],[5.216563347271261,36.672491766400356],[5.290097236633301,35.12965774536133],[5.438797950744629,35.38706970214844],[5.338839530944824,36.3527946472168],[5.416472434997559,36.3527946472168],[5.412543037368603,36.69698922766252],[5.489109762879419,36.70656006835137],[5.56428337097168,36.67487716674805],[5.655191339396668,36.74611729559369],[6.105763912200928,36.80373764038086],[6.11890355799803,36.87597211968067],[6.338772566412086,37.02276668010173],[6.804664611816406,36.8681755065918],[7.193697929382324,36.8681755065918],[7.346271514892578,37.06150817871094],[7.654907687519359,36.98425252654296],[7.738344192504883,36.8681755065918],[8.516410827636719,36.8681755065918],[8.92269575784413,37.07169679568288],[8.991649722902043,37.09652684105533]],[[10.14969539642334,37.06150817871094],[10.149913787841797,36.9970588684082],[10.227764129638672,36.9970588684082],[10.220489528047956,37.05720110069975],[10.14969539642334,37.06150817871094]],[[13.070935249328613,32.81447219848633],[13.147479057312012,32.81447219848633],[13.148033142089844,32.878753662109375],[13.071471214294434,32.878753662109375],[13.070935249328613,32.81447219848633]],[[8.827044486999512,36.932613372802734],[8.904873847961426,36.932613372802734],[8.904301643371582,36.9970588684082],[8.826451301574707,36.9970588684082],[8.827044486999512,36.932613372802734]]],[[[14.883006912567307,36.173668026623055],[14.795731991702889,35.45579169145288],[14.579014761580964,35.489379056410634],[14.362297531459038,35.52296642136839],[14.145580301337114,35.55655378632614],[14.057646543172591,35.61637776102384],[14.571182250976562,35.9664192199707],[14.883006912567307,36.173668026623055]]],[[[21.011659389732984,37.258668953940116],[21.011659389732984,37.258668953940116],[20.788689560606333,37.33029926326136],[20.56571973147968,37.401929572582596],[20.342749902353027,37.47355988190384],[20.17905331310328,37.76504667134998],[20.387204832260707,37.63845224199751],[20.595356351418133,37.51185781264505],[20.803507870575558,37.38526338329258],[21.011659389732984,37.258668953940116],[21.011659389732984,37.258668953940116]]],[[[20.108285972529757,38.67116453406493],[20.108285972529757,38.67116453406493],[20.17905331310328,37.76504667134998],[19.98654835551841,37.91896258429899],[19.990891619895457,38.21693063174892],[19.995234884272506,38.51489867919886],[20.108285972529757,38.67116453406493],[20.108285972529757,38.67116453406493]]],[[[1.651834011077881,39.1264533996582],[1.657540321350098,38.997230529785156],[1.430543661117554,38.80344009399414],[1.192074179649353,38.8680305480957],[1.258725643157959,39.1264533996582],[1.573212385177612,39.1264533996582],[1.651834011077881,39.1264533996582]]],[[[20.151897430419922,39.64360046386719],[20.095835675711896,38.927050600763664],[19.89849178155875,38.9659285678942],[19.884506072328378,38.96984282551905],[20.151897430419922,39.64360046386719]]],[[[3.195430040359497,39.90232849121094],[3.515789270401001,39.77294921875],[3.295835733413696,39.320335388183594],[2.82365870475769,39.320335388183594],[2.658556938171387,39.51427459716797],[2.346148252487183,39.449623107910156],[2.338095426559448,39.64360046386719],[2.566675901412964,39.8376350402832],[3.19298791885376,39.9670295715332],[3.195430040359497,39.90232849121094]]],[[[4.13611364364624,40.0964469909668],[4.296207904815674,40.031734466552734],[4.594159763360401,39.854585390544486],[4.391724613841626,39.84893527379072],[4.189289464322852,39.843285157036966],[3.986854314804077,39.8376350402832],[3.745640516281128,39.9670295715332],[3.741101741790771,40.0964469909668],[4.057111263275146,40.0964469909668],[4.13611364364624,40.0964469909668]]],[[[9.343191146850586,41.19768524169922],[9.66163158416748,41.06801223754883],[9.742422103881836,40.74397277832031],[9.821690559387207,40.74397277832031],[9.823226928710938,40.355369567871094],[9.665326118469238,40.29063034057617],[9.744987487792969,40.16116714477539],[9.670903205871582,39.19107437133789],[9.120378494262695,39.19107437133789],[8.96590518951416,38.8680305480957],[8.415505409240723,38.93262481689453],[8.330102920532227,39.51427459716797],[8.40887451171875,39.51427459716797],[8.48337459564209,39.90232849121094],[8.324762344360352,39.9670295715332],[8.400031089782715,40.29063034057617],[8.32094955444336,40.29063034057617],[8.318660736083984,40.4848747253418],[8.159523010253906,40.54964065551758],[8.154606819152832,40.93837356567383],[8.552037239074707,40.873565673828125],[9.024832725524902,41.26253128051758],[9.342779159545898,41.26253128051758],[9.343191146850586,41.19768524169922]]],[[[7.973388195037842,52.11625671386719],[8.226768493652344,52.250450134277344],[8.653847694396973,52.18334197998047],[8.573037147521973,51.84812545776367],[8.83102035522461,51.580322265625],[8.747003555297852,51.51342010498047],[8.834827423095703,51.24601745605469],[9.088645935058594,51.24601745605469],[9.090576171875,51.04566955566406],[8.921613693237305,51.04566955566406],[8.840231895446777,50.77880859375],[9.093182563781738,50.77880859375],[9.179359436035156,50.578861236572266],[9.60075855255127,50.51224899291992],[9.433981895446777,50.312522888183594],[9.098519325256348,50.2459831237793],[9.183796882629395,50.11296081542969],[9.01596450805664,50.11296081542969],[8.933579444885254,49.98000717163086],[8.765059471130371,50.04647445678711],[8.517290115356445,49.78071212768555],[8.604745864868164,49.51522445678711],[8.437610626220703,49.51522445678711],[8.448798179626465,48.786521911621094],[8.61889362335205,48.52202224731445],[8.629266738891602,47.79592514038086],[8.877120971679688,47.79592514038086],[8.956541061401367,48.059749603271484],[9.120599746704102,48.191749572753906],[9.781913757324219,48.38986587524414],[9.864044189453125,48.52202224731445],[10.445115089416504,48.52202224731445],[10.943477630615234,48.786521911621094],[11.359525680541992,48.852684020996094],[11.694007873535156,49.11750411987305],[12.11134147644043,49.18375015258789],[12.938261032104492,48.72037124633789],[9.838882694732945,43.60928431547529],[14.257559776306152,48.257774353027344],[14.507759094238281,48.323814392089844],[14.6702241897583,48.191749572753906],[14.91871452331543,48.191749572753906],[9.838882694732945,43.60928431547529],[16.14301109313965,47.664100646972656],[16.138551712036133,47.53233337402344],[16.22102928161621,47.53233337402344],[16.12752342224121,47.20316696166992],[16.207611083984375,47.13737487792969],[16.04092025756836,47.07159423828125],[16.036643981933594,46.94007873535156],[16.11881446838379,46.94007873535156],[16.034515380859375,46.87434005737305],[16.019739151000977,46.414546966552734],[16.101640701293945,46.414546966552734],[16.009300231933594,46.08650588989258],[16.170631408691406,46.02093505859375],[16.166351318359375,45.889827728271484],[16.569950103759766,45.75876998901367],[16.486114501953125,45.693260192871094],[16.563074111938477,45.56227111816406],[16.97290802001953,45.62776184082031],[17.04945182800293,45.496795654296875],[18.0239200592041,45.431331634521484],[18.180891036987305,45.300437927246094],[18.590717315673828,45.36587905883789],[18.98788833618164,45.169586181640625],[19.15045738220215,45.169586181640625],[18.92653655214849,40.19406628713352],[18.92653655214849,40.19406628713352],[18.92653655214849,40.19406628713352],[18.92653655214849,40.19406628713352],[18.92653655214849,40.19406628713352],[18.92653655214849,40.19406628713352],[18.92653655214849,40.19406628713352],[18.92653655214849,40.19406628713352],[18.92653655214849,40.19406628713352],[22.032384872436523,44.5159797668457],[22.194320678710938,44.5159797668457],[18.92653655214849,40.19406628713352],[26.392832878521347,40.202337957806606],[22.76578712463379,44.58129119873047],[22.518192291259766,44.5159797668457],[22.509014129638672,44.38538360595703],[22.97541618347168,44.12431716918945],[22.875843048095703,43.86341094970703],[23.526037216186523,43.92862319946289],[23.92439079284668,43.86341094970703],[24.075435638427734,43.73301696777344],[24.156030654907227,43.73301696777344],[24.14060401916504,43.53750228881836],[26.392832878521347,40.202337957806606],[26.392832878521347,40.202337957806606],[26.188731316021347,40.035467840619106],[26.188731316021347,40.035467840619106],[26.18587808595355,40.03267382853386],[23.57497215270996,42.43117141723633],[23.32564926147461,42.30118942260742],[23.21365737915039,41.84651184082031],[23.44826316833496,41.781593322753906],[23.743696212768555,41.45711898803711],[25.680164337158203,41.781593322753906],[26.2325496673584,41.71668243408203],[26.574190139770508,41.97637939453125],[27.46413230895996,42.10627746582031],[27.316564559936523,42.236209869384766],[27.328767776489258,42.36617660522461],[27.174896240234375,42.43117141723633],[27.193193435668945,42.62621307373047],[27.4521484375,42.82133865356445],[27.65704917907715,43.276947021484375],[27.991680145263672,43.407203674316406],[28.018028259277344,43.6678352355957],[29.539251957838026,41.62485132771603],[29.979281984794465,41.84708663236306],[30.207530144146347,41.96259186405655],[30.207530144146347,41.96259186405655],[30.174403854837223,41.945828268973635],[29.885444740537537,41.79960019185834],[29.694782160060026,41.70311518362928],[29.75904438732656,41.73563515430785],[28.48109245300293,43.472347259521484],[28.159194946289062,43.472347259521484],[28.22636604309082,43.342071533203125],[27.89820098876953,43.276947021484375],[27.80489730834961,43.146724700927734],[27.84662628173828,42.75628662109375],[27.513538360595703,42.62621307373047],[27.494890213012695,42.43117141723633],[27.796031951904297,42.236209869384766],[27.783546447753906,42.10627746582031],[28.004253387451172,41.911441802978516],[27.979368209838867,41.65177917480469],[28.21833038330078,41.65177917480469],[28.352495193481445,41.39224624633789],[28.975934982299805,41.26253128051758],[28.96312141418457,41.132843017578125],[30.47923469543457,41.19768524169922],[30.62422752380371,41.06801223754883],[31.1800537109375,41.06801223754883],[31.534175872802734,41.39224624633789],[32.02653121948242,41.521995544433594],[32.04172897338867,41.65177917480469],[32.1933708190918,41.586883544921875],[32.694705963134766,41.781593322753906],[32.630775451660156,41.911441802978516],[34.027199262360746,43.62045330075793],[34.881736755371094,42.041324615478516],[35.121212005615234,42.041324615478516],[34.45417702209877,43.78299455786257],[35.953800201416016,41.71668243408203],[35.236290963410916,44.05024145052681],[35.46363365977135,44.129584051556606],[35.46363365977135,44.129584051556606],[35.46363365977135,44.129584051556606],[35.42144274779929,44.11485942327836],[35.336185190041896,44.08510453562103],[35.049139083438476,43.985354116885155],[34.36014977167772,43.75101384149813],[33.62873451473053,43.420796932994705],[34.577850341796875,40.93837356567383],[34.561397552490234,40.80876541137695],[34.791015625,40.74397277832031],[34.616146087646484,40.614410400390625],[34.48881149291992,40.225894927978516],[34.56786346435547,40.225894927978516],[34.53628921508789,39.9670295715332],[34.82843017578125,39.77294921875],[34.726253509521484,39.57893371582031],[34.766693115234375,39.25570297241211],[34.47871780395508,38.80344009399414],[33.67961502075195,38.67427444458008],[33.266754150390625,38.48057174682617],[33.304447174072266,38.09331130981445],[33.12809753417969,37.89975357055664],[33.09543228149414,37.5772590637207],[31.812425820743382,36.12756386035314],[31.816078337265026,36.12466634784124],[32.561539866192504,35.630512773297255],[32.561539866192504,35.630512773297255],[34.412657925039525,36.09064881758934],[34.72324590144382,36.33348311556148],[34.72324590144382,36.33348311556148],[34.72324590144382,36.33348311556148],[35.05380630493164,37.641746520996094],[35.67116928100586,37.5772590637207],[35.998069763183594,37.706241607666016],[36.34809112548828,38.028785705566406],[37.1146354675293,37.89975357055664],[37.13022994995117,38.028785705566406],[37.451019287109375,38.09331130981445],[38.31162643432617,38.09331130981445],[38.38986587524414,38.09331130981445],[38.38165283203125,38.028785705566406],[38.45986557006836,38.028785705566406],[38.45166015625,37.96426773071289],[38.4434814453125,37.89975357055664],[38.332977294921875,37.641746520996094],[37.989139556884766,37.38381576538086],[37.95802688598633,37.12596130371094],[38.176177978515625,36.9970588684082],[38.130165100097656,36.61045455932617],[38.2078857421875,36.61045455932617],[38.07014083862305,36.09519577026367],[38.42798614501953,35.837650299072266],[39.497074127197266,35.708900451660156],[39.938289642333984,35.51579284667969],[40.06206512451172,35.258358001708984],[40.27842712402344,35.12965774536133],[40.26304244995117,35.00096893310547],[40.47920608520508,34.87228775024414],[40.549720764160156,34.164703369140625],[40.472782135009766,34.164703369140625],[35.465659696617536,34.73326797539306],[40.403316497802734,34.22901916503906],[40.25685501098633,34.2933349609375],[39.12379455566406,34.48630142211914],[37.990238189697266,33.971771240234375],[35.465659696617536,34.73326797539306],[35.465659696617536,34.73326797539306],[35.465659696617536,34.73326797539306],[35.18405497471673,34.20067253752006],[35.18405497471673,34.20067253752006],[36.90095901489258,33.07160949707031],[36.716766357421875,32.75019073486328],[36.750667572021484,32.30024337768555],[36.5155143737793,32.23596954345703],[36.65636444091797,32.107421875],[36.491905212402344,31.978878021240234],[36.46286392211914,31.65752601623535],[36.38663864135742,31.65752601623535],[36.423099517822266,31.20764923095703],[36.2708854675293,31.20764923095703],[36.40085220336914,30.950578689575195],[36.15641784667969,30.757776260375977],[36.14565658569336,30.629240036010742],[35.83653259277344,30.564971923828125],[35.760589599609375,30.564971923828125],[35.934932708740234,31.7217960357666],[35.85868835449219,31.7217960357666],[35.963470458984375,32.878753662109375],[36.05210876464844,33.00732421875],[35.69917678833008,33.32876968383789],[35.53378677368164,33.20018768310547],[35.39841842651367,32.557350158691406],[35.15760040283203,32.428794860839844],[34.85185623168945,32.428794860839844],[34.857479095458984,32.493072509765625],[35.021759033203125,32.62162780761719],[35.05632781982422,33.00732421875],[35.21538543701172,33.07160949707031],[34.94765515525339,33.73600933111051],[35.34577560424805,33.65024948120117],[35.013324840379234,33.876405971183765],[35.4470100402832,33.90746307373047],[35.18405497471673,34.20067253752006],[35.64447784423828,34.3576545715332],[35.79212951660156,34.2933349609375],[36.048770904541016,34.55062484741211],[36.0682373046875,34.743614196777344],[35.92698669433594,34.87228775024414],[35.959747314453125,35.194007873535156],[35.88248825073242,35.194007873535156],[35.99294662475586,35.51579284667969],[35.84488296508789,35.58015823364258],[35.990074157714844,36.2239875793457],[35.84174346923828,36.28839111328125],[36.26490020751953,36.61045455932617],[36.28622817993164,36.80373764038086],[36.144901275634766,36.932613372802734],[35.833587646484375,36.932613372802734],[35.487709045410156,36.61045455932617],[35.11265563964844,36.73930740356445],[34.95038986206055,36.67487716674805],[34.892860412597656,36.8681755065918],[34.72324590144382,36.33348311556148],[34.57350220188283,36.24401651328856],[34.27628357164454,36.2662038132849],[33.97906494140625,36.28839111328125],[33.23829645347743,35.35152158639431],[32.713401794433594,36.03080368041992],[32.558349609375,36.03080368041992],[32.498512268066406,36.2239875793457],[31.80718988105326,36.131717489959954],[31.08603858947754,36.932613372802734],[30.619068145751953,36.932613372802734],[30.49193572998047,36.3527946472168],[30.02613639831543,36.3527946472168],[29.938032150268555,36.2239875793457],[29.239721298217773,36.2239875793457],[29.124916076660156,36.73930740356445],[28.736103057861328,36.73930740356445],[28.590524673461914,36.8681755065918],[28.357105255126953,36.8681755065918],[28.186922073364258,36.67487716674805],[28.03143882751465,36.67487716674805],[28.138330459594727,37.06150817871094],[28.065349578857422,37.12596130371094],[27.597978591918945,37.12596130371094],[27.53919219970703,37.38381576538086],[27.22254180908203,37.3193473815918],[27.309988021850586,37.44829177856445],[27.16343116760254,37.5772590637207],[27.2558650970459,37.7707405090332],[27.177743911743164,37.7707405090332],[27.27528190612793,38.028785705566406],[26.888994216918945,38.09331130981445],[26.820327758789062,38.22237777709961],[26.42890739440918,38.22237777709961],[26.38368797302246,38.67427444458008],[26.535762786865234,38.60969924926758],[26.594974517822266,38.351463317871094],[27.06496238708496,38.351463317871094],[27.079774856567383,38.54513168334961],[26.849470138549805,38.60969924926758],[26.95786476135254,38.997230529785156],[26.879291534423828,38.997230529785156],[26.894468307495117,39.19107437133789],[26.742225646972656,39.25570297241211],[26.84657859802246,39.57893371582031],[26.132457733154297,39.51427459716797],[26.2723331451416,40.29063034057617],[26.604726791381836,40.4848747253418],[26.683887481689453,40.4848747253418],[26.673099517822266,40.355369567871094],[27.46982192993164,40.42012023925781],[27.537628173828125,40.29063034057617],[27.695789337158203,40.29063034057617],[27.792133331298828,40.4848747253418],[27.950454711914062,40.4848747253418],[27.938817977905273,40.355369567871094],[29.046321868896484,40.355369567871094],[28.900379180908203,40.4848747253418],[28.91274642944336,40.614410400390625],[29.480079650878906,40.74397277832031],[29.493009567260742,40.873565673828125],[29.24864959716797,40.80876541137695],[29.10276222229004,40.93837356567383],[29.115554809570312,41.06801223754883],[28.632890701293945,41.00318908691406],[28.16880989074707,41.132843017578125],[28.077255249023438,41.00318908691406],[27.527481079101562,41.06801223754883],[27.017187118530273,40.6791877746582],[26.921367645263672,40.4848747253418],[26.62644386291504,40.74397277832031],[26.140260696411133,40.614410400390625],[26.082168579101562,40.873565673828125],[25.37845802307129,41.00318908691406],[24.34656524658203,41.00318908691406],[24.010608673095703,40.74397277832031],[23.698017120361328,40.80876541137695],[23.684629440307617,40.614410400390625],[23.83857536315918,40.54964065551758],[23.73737335205078,40.225894927978516],[23.267255783081055,40.29063034057617],[22.884185791015625,40.4848747253418],[22.89249038696289,40.614410400390625],[22.654850006103516,40.614410400390625],[22.55951499938965,40.355369567871094],[22.543659210205078,40.0964469909668],[22.701663970947266,40.0964469909668],[22.610868453979492,39.90232849121094],[23.135168075561523,39.449623107910156],[22.816326141357422,39.38497543334961],[22.797286987304688,39.06184005737305],[22.95830535888672,39.1264533996582],[23.492761611938477,38.8680305480957],[23.331829071044922,38.80344009399414],[23.025423049926758,38.93262481689453],[22.935583114624023,38.738853454589844],[23.16720199584961,38.67427444458008],[23.312631607055664,38.48057174682617],[23.626148223876953,38.48057174682617],[23.563383102416992,38.738853454589844],[24.030162811279297,38.67427444458008],[24.178871154785156,38.54513168334961],[24.158668518066406,38.22237777709961],[24.002099990844727,38.22237777709961],[23.9786319732666,37.835243225097656],[23.44280242919922,38.028785705566406],[23.208162307739258,38.028785705566406],[23.20083236694336,37.89975357055664],[23.044498443603516,37.89975357055664],[22.52028393846672,35.99836911303004],[23.342487335205078,37.641746520996094],[23.402393341064453,37.3193473815918],[22.52028393846672,35.99836911303004],[22.52028393846672,35.99836911303004],[21.981198603703092,36.296536663431596],[21.981198603703092,36.296536663431596],[21.981198603703092,36.296536663431596],[21.981198603703092,36.296536663431596],[23.056013107299805,36.67487716674805],[22.52028393846672,35.99836911303004],[21.981198603703092,36.296536663431596],[21.981198603703092,36.296536663431596],[22.35634422302246,36.67487716674805],[21.981198603703092,36.296536663431596],[21.335708908360626,36.65308984115321],[21.54787327700513,36.43804913624461],[21.431326063397343,36.53482828178433],[21.12959178330842,37.19892395289446],[21.12957324998116,37.19772240405613],[21.133691976828857,37.26442960968893],[21.11407043347907,37.274764324946375],[21.11407043347907,37.274764324946375],[21.133691976828857,37.26442960968893],[21.738431930541992,38.351463317871094],[20.108285972529757,38.67116453406493],[20.163791680480017,38.896576071232516],[20.163791680480017,38.896576071232516],[20.163791680480017,38.896576071232516],[20.29724884033203,39.38497543334961],[20.15495491027832,39.70827102661133],[19.460092285345638,39.293265952306854],[19.460092285345638,39.293265952306854],[19.453915142953118,39.29870838610196],[19.393062069102168,39.35232360242968],[20.00027847290039,39.77294921875],[20.009418487548828,39.9670295715332],[19.62952995300293,40.29063034057617],[19.47136878967285,40.29063034057617],[19.48629379272461,40.614410400390625],[19.2486515045166,40.614410400390625],[19.254547119140625,40.74397277832031],[19.498455047607422,40.873565673828125],[19.437559127807617,41.26253128051758],[19.523332595825195,41.39224624633789],[19.443790435791016,41.39224624633789],[19.529659271240234,41.521995544433594],[19.450061798095703,41.521995544433594],[19.54244041442871,41.781593322753906],[18.92653655214849,40.19406628713352],[18.143457412719727,42.62621307373047],[18.92653655214849,40.19406628713352],[17.107143904951556,39.974446403878915],[17.107143904951556,39.974446403878915],[17.107143904951556,39.974446403878915],[17.107143904951556,39.974446403878915],[17.107143904951556,39.974446403878915],[17.107143904951556,39.974446403878915],[17.107143904951556,39.974446403878915],[17.107143904951556,39.974446403878915],[17.107143904951556,39.974446403878915],[17.107143904951556,39.974446403878915],[14.489168361212762,40.16321858914944],[14.489168361212762,40.16321858914944],[13.41127755949617,40.80420571166911],[13.41127755949617,40.80420571166911],[13.41127755949617,40.80420571166911],[13.41127755949617,40.80420571166911],[13.41127755949617,40.80420571166911],[13.41127755949617,40.80420571166911],[13.41127755949617,40.80420571166911],[13.41127755949617,40.80420571166911],[13.41127755949617,40.80420571166911],[14.515777587890625,45.10417556762695],[11.807246324926211,41.57377895397184],[11.346197690217366,41.933941319087694],[14.189410209655762,45.03877639770508],[11.346197690217366,41.933941319087694],[11.346197690217366,41.933941319087694],[13.780906677246094,44.908016204833984],[11.346197690217366,41.933941319087694],[13.544051170349121,45.300437927246094],[9.838882694732945,43.60928431547529],[11.346197690217366,41.933941319087694],[9.838882694732945,43.60928431547529],[13.389599800109863,45.82429504394531],[13.144780158996582,45.82429504394531],[13.060476303100586,45.62776184082031],[12.816752433776855,45.693260192871094],[12.652192115783691,45.56227111816406],[12.162785530090332,45.496795654296875],[12.160021781921387,45.169586181640625],[12.40256118774414,45.03877639770508],[12.399906158447266,44.77729415893555],[12.157197952270508,44.842647552490234],[12.153728485107422,44.45067596435547],[12.312999725341797,44.18956756591797],[12.873446464538574,43.79821014404297],[13.035634994506836,43.86341094970703],[13.033763885498047,43.73301696777344],[13.355091094970703,43.6678352355957],[13.672640800476074,43.407203674316406],[13.747068405151367,43.08163070678711],[13.98537540435791,42.95146560668945],[13.901384353637695,42.75628662109375],[14.056464195251465,42.496177673339844],[14.370945930480957,42.236209869384766],[14.530768394470215,42.236209869384766],[14.607714653015137,42.10627746582031],[14.768959999084473,42.17123794555664],[14.765887260437012,42.041324615478516],[14.9239501953125,41.97637939453125],[15.165011405944824,42.041324615478516],[15.241438865661621,41.911441802978516],[16.11888313293457,41.911441802978516],[16.114879608154297,41.781593322753906],[15.87384033203125,41.71668243408203],[15.943941116333008,41.39224624633789],[17.20269203186035,41.00318908691406],[17.510658264160156,40.74397277832031],[17.981229782104492,40.614410400390625],[18.43811798095703,40.16116714477539],[18.34894371032715,39.90232849121094],[18.11216926574707,39.90232849121094],[17.813072204589844,40.355369567871094],[17.41753578186035,40.355369567871094],[17.345230102539062,40.54964065551758],[17.02848243713379,40.54964065551758],[16.867990493774414,40.4848747253418],[16.945016860961914,40.42012023925781],[16.861696243286133,40.29063034057617],[16.624452590942383,40.29063034057617],[16.855777338438372,40.11873890172765],[17.08710208593436,39.946847462879134],[17.08710208593436,39.946847462879134],[17.08710208593436,39.946847462879134],[17.13946607311244,39.91788015082321],[17.38321108885669,39.74302252541429],[17.47688382219032,39.48309087455391],[17.57055655552395,39.22315922369353],[17.433738970149527,39.03632671944369],[17.296921384775104,38.84949421519386],[17.16010379940068,38.66266171094402],[17.023286214026257,38.475829206694186],[16.742549132186525,38.00264507659093],[16.46893232462957,38.06895623634797],[16.53272347016969,37.84935742698345],[15.651377800396261,38.276495672650384],[15.648081901958705,38.267889715619106],[15.50025475352129,38.086127020306606],[15.572914409971695,38.197614955091936],[15.389483451843262,38.157840728759766],[15.066489219665527,37.641746520996094],[15.059245109558105,37.254878997802734],[15.213889122009277,37.1904182434082],[15.049844741821289,36.73930740356445],[14.661029815673828,36.73930740356445],[14.27791690826416,37.12596130371094],[13.578389167785645,37.254878997802734],[13.192005157470703,37.5772590637207],[12.490468978881836,37.706241607666016],[12.49189567565918,37.89975357055664],[12.649824142456055,38.09331130981445],[13.040358543395996,38.028785705566406],[13.119925498962402,38.157840728759766],[13.354706764221191,38.157840728759766],[13.665236473083496,37.96426773071289],[14.05618953704834,37.96426773071289],[14.322054247606326,38.016305721035806],[14.587918958164314,38.06834371135872],[14.8537836687223,38.12038170168164],[15.119648379280287,38.17241969200455],[15.385513089838275,38.22445768232747],[15.651377800396261,38.276495672650384],[15.64718860405901,38.52345816101704],[15.64299940772176,38.7704206493837],[15.63881021138451,39.01738313775036],[15.63881021138451,39.01738313775036],[15.63881021138451,39.01738313775036],[15.63881021138451,39.01738313775036],[15.390477323341116,39.58376320687903],[15.665508270263672,39.90232849121094],[15.383493913495386,39.602529627807144],[15.431868553161621,40.031734466552734],[15.199469566345215,40.225894927978516],[15.041359901428223,40.225894927978516],[14.893351554870605,40.6791877746582],[14.417906761169434,40.6791877746582],[14.421854972839355,40.873565673828125],[14.104567527770996,40.873565673828125],[13.950616836547852,41.132843017578125],[13.791753768920898,41.132843017578125],[13.714534759521484,41.26253128051758],[13.000019073486328,41.32738494873047],[12.922186851501465,41.45711898803711],[12.604641914367676,41.521995544433594],[12.130502700805664,41.911441802978516],[12.131669044494629,42.041324615478516],[11.812841415405273,42.10627746582031],[11.654799461364746,42.36617660522461],[11.494501113891602,42.30118942260742],[11.415224075317383,42.43117141723633],[11.255227088928223,42.43117141723633],[11.175962448120117,42.62621307373047],[11.015789985656738,42.62621307373047],[11.01634693145752,42.82133865356445],[10.535322189331055,43.08163070678711],[10.212339401245117,43.99384307861328],[9.889463424682617,43.99384307861328],[9.969700813293457,44.12431716918945],[9.7273588180542,44.12431716918945],[8.98878561435962,43.917118491548784],[8.774908156798745,43.94820856394074],[8.60034347037106,43.80727815626762],[8.435624422695152,43.65415236173824],[8.265982555643356,43.50712426063699],[7.9792955269401835,43.42725488805458],[7.69260849823701,43.34738551547216],[7.405921469533837,43.26751614288975],[6.993107318878174,43.53750228881836],[7.015902052301783,43.280567019859376],[7.038696785725392,43.02363175090039],[6.692722327522881,42.764195545977806],[6.416557180060352,42.701205331979736],[6.209782512435254,42.849711788295735],[6.003007844810156,42.998218244611735],[5.796233177185059,43.146724700927734],[5.631923198699951,43.276947021484375],[5.390771865844727,43.276947021484375],[5.386905193328857,43.407203674316406],[5.063065528869629,43.472347259521484],[4.177847862243652,43.472347259521484],[4.173032760620117,43.6026611328125],[3.850892543792725,43.6026611328125],[3.617136240005493,43.407203674316406],[3.140029191970825,43.276947021484375],[2.984907388687134,43.146724700927734],[3.1601375202157365,43.027391045696184],[3.335367651744339,42.90805739046463],[3.510597783272942,42.78872373523308],[3.3443299919096035,42.57745017022884],[3.178062200546265,42.36617660522461],[3.439513121961118,41.51945437713195],[3.2109831051011946,41.402470262372034],[2.9824530882412708,41.28548614761211],[2.7539230713813474,41.168502032852196],[2.555028848546669,41.082257765787574],[2.3281610337894945,40.90858475032226],[1.3794553924479072,40.6787836055798],[1.337425852352965,40.66735795338349],[0.8955392619137655,40.21615633170514],[0.7117750333585012,40.03464738945583],[0.5207633641058944,39.83446402197345],[0.321619872835265,39.64791295104527],[0.148635182679072,39.4136271875916],[0.18772927574908788,39.30188323823364],[0.3549985404288878,38.303708134790945],[-0.124942404695503,38.05836797811759],[-0.293280899139688,37.76790965384146],[-0.704753637313843,37.641746520996094],[-0.8708538890102204,37.48720113201128],[-1.036954140706598,37.332655743026464],[-1.2030543924029755,37.17811035404165],[-1.369154644099353,37.023564965056835],[-1.623468399047852,37.3193473815918],[-1.428074746043762,36.96561666093436],[-1.639259834230794,36.91165698741653],[-1.8504449224178259,36.85769731389869],[-2.061630010604858,36.80373764038086],[-2.468320161776912,36.55064083619683],[-2.6354176761613064,36.5170605532156],[-4.221922292313593,36.27755143567936],[-4.603502639790176,36.12154988237621],[-5.205119224253702,36.013384607483964],[-5.287947177886963,36.2239875793457],[-5.662277221679688,36.03080368041992],[-5.819207209115345,35.9831179154208],[-6.0514140449989,35.97167308508718],[-6.820069342631766,36.52492123864066],[-6.854540394699598,36.64890238881151],[-6.587993621826172,36.9970588684082],[-7.020971942693564,36.75058375292696],[-7.365085350088293,36.731371288639366],[-7.454815864562988,37.12596130371094],[-7.677903652191162,36.9970588684082],[-8.067157745361328,36.9970588684082],[-8.34377047565662,36.640104186299524],[-8.566700722962366,36.657982528318996],[-9.00136661529541,36.9970588684082],[-8.896896362304688,37.5772590637207],[-8.818843841552734,37.5772590637207],[-8.822718620300293,38.48057174682617],[-9.20852279663086,38.416015625],[-9.642238682190907,38.3138822100027],[-9.38370418548584,38.60969924926758],[-9.553065299987793,38.738853454589844],[-9.571974754333496,38.93262481689453],[-9.42748737335205,39.06184005737305],[-9.387048721313477,39.449623107910156],[-9.521816913124667,39.79900643840227],[-9.103915214538574,39.77294921875],[-9.427079614198911,39.981573461788976],[-8.925222396850586,40.355369567871094],[-8.846114158630371,40.355369567871094],[-8.872282981872559,40.614410400390625],[-8.72695255279541,40.74397277832031],[-8.956093788146973,42.17123794555664],[-9.31486177866691,42.243691884499185],[-9.078654289245605,42.56119155883789],[-9.100251197814941,42.75628662109375],[-9.275152206420898,42.88639831542969],[-9.30460262298584,43.146724700927734],[-9.158673286437988,43.276947021484375],[-8.851689338684082,43.407203674316406],[-8.369025230407715,43.407203674316406],[-8.39044189453125,43.6026611328125],[-8.243616104125977,43.73301696777344],[-7.276463031768799,43.73301696777344],[-7.075377882676094,44.015655998174736],[-7.075377882676094,44.015655998174736],[-5.584769438073483,44.03027173715011],[-5.360968261901677,43.99618527749332],[-5.137167085729872,43.96209881783652],[-4.913365909558066,43.92801235817973],[-3.467212915420532,43.472347259521484],[-3.184054492484415,43.86133891008242],[-1.867479059910124,43.8510610453215],[-1.388410806655884,43.6678352355957],[-1.348801136016846,44.25482940673828],[-1.267958283424377,44.25482940673828],[-1.286344885826111,44.5159797668457],[-1.205376982688904,44.5159797668457],[-1.251859068870544,45.169586181640625],[-1.170574903488159,45.169586181640625],[-1.189373373985291,45.431331634521484],[-1.031213998794556,45.496795654296875],[-1.045281529426575,45.693260192871094],[-1.213142395019531,45.75876998901367],[-1.141096234321594,45.889827728271484],[-1.222735166549683,45.889827728271484],[-1.251809358596802,46.283294677734375],[-1.666043281555176,46.348915100097656],[-2.014399528503418,46.61152267456055],[-2.024919986724854,46.74290466308594],[-2.194406032562256,46.808616638183594],[-2.541819166817845,46.85453053821692],[-2.232228517532349,47.26897048950195],[-2.561590671539307,47.26897048950195],[-2.578423976898193,47.46647262573242],[-2.825755596160889,47.46647262573242],[-3.046638250484875,47.15920499997702],[-3.155531167984009,47.46647262573242],[-3.417410284640539,47.262162586319334],[-3.757235288619995,47.730003356933594],[-3.934937715530396,47.86185836791992],[-4.424368858337402,47.79592514038086],[-4.692053318023682,47.993770599365234],[-4.705362796783447,48.1257438659668],[-5.114995906310128,48.147823257273444],[-5.114995906310128,48.147823257273444],[-4.891265392303467,48.323814392089844],[-4.911745548248291,48.52202224731445],[-4.599917888641357,48.72037124633789],[-3.866683521588755,49.1459512364375],[-3.4950352086344214,49.26288668324084],[-3.0470419917540825,49.260687807667054],[-3.046114139093504,49.26048389439552],[-3.046114139093504,49.26048389439552],[-2.263359762974005,49.87460829176922],[-2.263359762974005,49.87460829176922],[-2.263359762974005,49.87460829176922],[-2.263359762974005,49.87460829176922],[-2.263359762974005,49.87460829176922],[-2.031550645828247,49.78071212768555],[-1.361783027648926,49.78071212768555],[-1.636377556257514,50.12569600287384],[-0.13653363391385093,50.35144363858892],[-0.11709839591692095,50.354322933106985],[0.224112883210182,49.84712600708008],[1.052847385406494,49.98000717163086],[1.454967975616455,50.2459831237793],[1.424705147743225,50.71213912963867],[1.656218767166138,51.04566955566406],[2.577829360961914,51.17921447753906],[2.73940634727478,51.31283950805664],[3.409677743911743,51.44654083251953],[3.399252653121948,51.64724349975586],[3.738690614700317,51.64724349975586],[3.647099733352661,51.78114318847656],[3.81699013710022,51.78114318847656],[3.810401916503906,51.91512680053711],[3.980464458465576,51.91512680053711],[3.974021434783936,52.0491943359375],[4.223166942596436,52.18334197998047],[4.21693229675293,52.31757736206055],[4.463808536529541,52.51908493041992],[4.454747676849365,52.720787048339844],[4.699799060821533,52.99003219604492],[4.531023476772361,53.49117934901648],[4.970867156982422,52.653533935546875],[5.390830039978027,52.85536575317383],[5.385728359222412,52.99003219604492],[4.911981546858385,53.744837223430636],[5.10806747445082,53.793219081768775],[5.304153402043256,53.84160094010691],[5.500239329635691,53.88998279844505],[6.154130106733932,53.94768974363765],[6.36632439908884,53.826283970325896],[6.388235971695167,53.95699848872732],[6.790712983798656,54.07517362334613],[7.002907276153564,53.462066650390625],[7.179872989654541,53.25962829589844],[7.18629264831543,52.99003219604492],[7.019874095916748,52.78806686401367],[7.116903781890869,52.31757736206055],[7.287490367889404,52.31757736206055],[7.290561676025391,52.18334197998047],[7.462418079376221,52.11625671386719],[7.888226509094238,52.11625671386719],[7.973388195037842,52.11625671386719]],[[35.51771545410156,33.84315490722656],[35.14463977826915,34.14116648351806],[35.60073471069336,33.90746307373047],[35.52387237548828,33.90746307373047],[35.51771545410156,33.84315490722656]],[[31.218888526257103,36.36847820824187],[31.218888526257103,36.36847820824187],[31.218888526257103,36.36847820824187],[31.218888526257103,36.36847820824187],[31.218888526257103,36.36847820824187]],[[21.133691976828857,37.26442960968893],[21.133691976828857,37.26442960968893],[22.279848098754883,38.22237777709961],[22.20156478881836,38.22237777709961],[21.133691976828857,37.26442960968893]],[[22.35813331604004,38.22237777709961],[22.361600875854492,38.28691864013672],[22.283292770385742,38.28691864013672],[22.279848098754883,38.22237777709961],[22.35813331604004,38.22237777709961]],[[22.439908981323242,38.28691864013672],[22.432939529418945,38.157840728759766],[22.589460372924805,38.157840728759766],[21.133691976828857,37.26442960968893],[22.969919204711914,37.96426773071289],[22.9061222076416,38.22237777709961],[22.745981216430664,38.157840728759766],[22.83506965637207,38.351463317871094],[22.51470184326172,38.22237777709961],[22.603641510009766,38.416015625],[22.29022216796875,38.416015625],[22.361600875854492,38.28691864013672],[22.439908981323242,38.28691864013672]],[[21.133691976828857,37.26442960968893],[21.133691976828857,37.26442960968893],[21.133691976828857,37.26442960968893],[22.432939529418945,38.157840728759766],[21.133691976828857,37.26442960968893]],[[23.05537223815918,38.09331130981445],[23.059024810791016,38.157840728759766],[22.980764389038086,38.157840728759766],[22.977134704589844,38.09331130981445],[23.05537223815918,38.09331130981445]],[[22.984405517578125,38.22237777709961],[22.988061904907227,38.28691864013672],[22.909753799438477,38.28691864013672],[22.9061222076416,38.22237777709961],[22.984405517578125,38.22237777709961]],[[20.163791680480017,38.896576071232516],[20.163791680480017,38.896576071232516],[20.163791680480017,38.896576071232516],[20.163791680480017,38.896576071232516],[20.163791680480017,38.896576071232516]]],[[[9.492650985717773,42.88639831542969],[9.577608108520508,41.97637939453125],[9.497812271118164,41.97637939453125],[9.49889087677002,41.781593322753906],[9.262411117553711,41.39224624633789],[9.1038236618042,41.32738494873047],[8.783942222595215,41.521995544433594],[8.782108306884766,41.71668243408203],[8.622743606567383,41.71668243408203],[8.700496673583984,41.911441802978516],[8.538846015930176,42.10627746582031],[8.534564018249512,42.496177673339844],[8.772740364074707,42.691246032714844],[9.17282485961914,42.75628662109375],[9.251097679138184,43.016544342041016],[9.492270469665527,42.95146560668945],[9.492650985717773,42.88639831542969]]],[[[10.455124855041504,42.82133865356445],[10.455166816711426,42.691246032714844],[10.134566307067871,42.75628662109375],[10.134284973144531,42.88639831542969],[10.45510196685791,42.88639831542969],[10.455124855041504,42.82133865356445]]],[[[14.509830474853516,44.842647552490234],[14.502378463745117,44.5159797668457],[14.340442657470703,44.5159797668457],[14.269240379333496,44.973392486572266],[14.51131820678711,44.908016204833984],[14.509830474853516,44.842647552490234]]],[[[16.64687156677246,45.62776184082031],[16.56536293029785,45.62776184082031],[16.567655563354492,45.693260192871094],[16.64919662475586,45.693260192871094],[16.64687156677246,45.62776184082031]]],[[[10.030064582824707,48.52202224731445],[9.947053909301758,48.52202224731445],[9.94668960571289,48.5881233215332],[10.029735565185547,48.5881233215332],[10.030064582824707,48.52202224731445]]],[[[34.535736083984375,35.644527435302734],[34.19511795043945,35.32271194458008],[33.95713424682617,35.258358001708984],[34.08732223510742,35.00096893310547],[33.69539260864258,34.93662643432617],[33.523399353027344,34.743614196777344],[33.1320686340332,34.679283142089844],[33.04356002807617,34.55062484741211],[32.36665725708008,34.743614196777344],[32.229042053222656,34.93662643432617],[32.24578857421875,35.12965774536133],[32.55473709106445,35.12965774536133],[32.875247955322266,35.258358001708984],[32.886871337890625,35.38706970214844],[33.73737716674805,35.38706970214844],[34.14873123168945,35.644527435302734],[34.542076110839844,35.708900451660156],[34.535736083984375,35.644527435302734]]],[[[24.178620284216166,34.75119850232269],[23.641280908813464,34.79520358962622],[23.51245755106054,34.99826238734808],[23.383634193307614,35.20132118506994],[23.254810835554686,35.40437998279181],[23.12598747780176,35.60743878051367],[24.094865201722303,34.75805757479341],[24.098343554732885,34.75777271715053],[24.25366303669162,34.7450529209167],[25.791013424255713,34.77571997790284],[25.74596585170777,34.767593318015734],[26.015346050572134,34.816189971124174],[26.284726249436495,34.86478662423262],[26.17966789908941,34.84583391638889],[24.799129363210856,34.700382281804046],[24.717568122193917,34.70706169093695],[24.255383593457072,34.74491201694774],[24.178620284216166,34.75119850232269]]],[[[28.240577697753906,36.3527946472168],[28.139331817626953,36.03080368041992],[27.98427963256836,36.03080368041992],[27.897531509399414,35.902034759521484],[27.669618606567383,35.9664192199707],[27.7747802734375,36.3527946472168],[28.01713752746582,36.48161697387695],[28.245365142822266,36.417205810546875],[28.240577697753906,36.3527946472168]]],[[[23.113439559936523,36.28839111328125],[23.10675048828125,36.15959167480469],[22.87404441833496,36.15959167480469],[22.887205123901367,36.417205810546875],[23.116798400878906,36.3527946472168],[23.113439559936523,36.28839111328125]]],[[[27.107633590698242,36.80373764038086],[27.02080535888672,36.67487716674805],[26.865324020385742,36.67487716674805],[27.038949966430664,36.932613372802734],[27.19460678100586,36.932613372802734],[27.18541717529297,36.80373764038086],[27.107633590698242,36.80373764038086]]],[[[26.354869011333847,38.08130524296297],[26.258067253521403,38.1524722351503],[26.258067253521403,38.1524722351503],[26.331106251362154,38.09877521656129],[26.354869011333847,38.08130524296297]]],[[[26.201426628521233,38.263373114056606],[26.201426628521233,38.263373114056606],[24.201318740844727,37.641746520996094],[26.201426628521233,38.263373114056606],[26.201426628521233,38.263373114056606],[26.201426628521233,38.263373114056606]]],[[[26.258067253521403,38.1524722351503],[26.258067253521403,38.1524722351503],[26.226236739690105,38.21479555802888],[26.201426628521233,38.263373114056606],[26.24942361017978,38.169396265270656],[26.258067253521403,38.1524722351503]]],[[[26.304851531982422,37.5772590637207],[25.988245010375977,37.51277160644531],[26.079580307006836,37.706241607666016],[26.309354782104492,37.641746520996094],[26.304851531982422,37.5772590637207]]],[[[26.201426628521233,38.263373114056606],[26.201426628521233,38.263373114056606],[26.201426628521233,38.263373114056606],[26.201426628521233,38.263373114056606],[24.694225311279297,38.028785705566406],[26.201426628521233,38.263373114056606],[26.201426628521233,38.263373114056606]]],[[[26.13894271850586,38.54513168334961],[26.217344284057617,38.54513168334961],[26.194055557250977,38.22237777709961],[25.876405715942383,38.157840728759766],[25.82992172241211,38.60969924926758],[26.14362907409668,38.60969924926758],[26.13894271850586,38.54513168334961]]],[[[23.56732749938965,38.80344009399414],[23.563383102416992,38.738853454589844],[23.484909057617188,38.738853454589844],[23.488826751708984,38.80344009399414],[23.56732749938965,38.80344009399414]]],[[[24.674930572509766,38.93262481689453],[24.662033081054688,38.738853454589844],[24.35651969909668,38.8680305480957],[24.364974975585938,38.997230529785156],[24.59638214111328,38.93262481689453],[24.674930572509766,38.93262481689453]]],[[[26.35381507873535,39.320335388183594],[26.584882736206055,39.25570297241211],[26.643573760986328,38.997230529785156],[26.24588966369629,38.93262481689453],[26.09356689453125,38.997230529785156],[26.103172302246094,39.1264533996582],[25.793418884277344,39.19107437133789],[26.043895721435547,39.38497543334961],[26.348770168261108,39.35939721371324],[26.35381507873535,39.320335388183594]]],[[[25.46186065673828,40.031734466552734],[25.447328567504883,39.8376350402832],[24.973936080932617,39.8376350402832],[25.066978454589844,40.031734466552734],[25.382883071899414,40.031734466552734],[25.46186065673828,40.031734466552734]]]]}}]}